start=new Date('2022-03-05T00:00:00.000Z').valueOf();
sats=[{"EPOCH":"2022-03-04T06:34:37.291008","LAUNCH_DATE":"2022-02-03","CLASSIFICATION_TYPE":"U","SITE":"AFETR","PERIAPSIS":"348.651","PERIOD":"91.530","ECCENTRICITY":"0.00014420","MEAN_ANOMALY":"316.6489","OBJECT_ID":"2022-010R","OBJECT_NAME":"STARLINK-3165","CENTER_NAME":"EARTH","DECAY_DATE":null,"EPHEMERIS_TYPE":"0","TLE_LINE2":"2 51471  53.2154  29.6869 0001442  43.4644 316.6489 15.73248896  5337","RA_OF_ASC_NODE":"29.6869","NORAD_CAT_ID":"51471","MEAN_MOTION_DDOT":"0.0000000000000","COUNTRY_CODE":"US","INCLINATION":"53.2154","SEMIMAJOR_AXIS":"6727.756","ARG_OF_PERICENTER":"43.4644","FILE":"3344357","REF_FRAME":"TEME","APOAPSIS":"350.591","MEAN_ELEMENT_THEORY":"SGP4","BSTAR":"0.00013582000000","REV_AT_EPOCH":"533","RCS_SIZE":"LARGE","MEAN_MOTION":"15.73248896","OBJECT_TYPE":"PAYLOAD","TIME_SYSTEM":"UTC","TLE_LINE1":"1 51471U 22010R   22063.27404272  .00018523  00000-0  13582-3 0  9995","GP_ID":"197846466","MEAN_MOTION_DOT":"0.00018523","ELEMENT_SET_NO":"999"},{"BSTAR":"-0.00608010000000","APOAPSIS":"356.936","REF_FRAME":"TEME","MEAN_ELEMENT_THEORY":"SGP4","FILE":"3344788","REV_AT_EPOCH":"591","SEMIMAJOR_AXIS":"6734.016","COUNTRY_CODE":"US","INCLINATION":"53.2177","MEAN_MOTION_DDOT":"0.0000000000000","ARG_OF_PERICENTER":"40.1112","GP_ID":"197882602","ELEMENT_SET_NO":"999","MEAN_MOTION_DOT":"-0.00716233","RCS_SIZE":"LARGE","TIME_SYSTEM":"UTC","TLE_LINE1":"1 51472U 22010S   22063.91667824 -.00716233  00000-0 -60801-2 0  9991","MEAN_MOTION":"15.71055554","OBJECT_TYPE":"PAYLOAD","PERIOD":"91.658","MEAN_ANOMALY":"75.4809","OBJECT_ID":"2022-010S","OBJECT_NAME":"STARLINK-3415","CENTER_NAME":"EARTH","ECCENTRICITY":"0.00015660","LAUNCH_DATE":"2022-02-03","EPOCH":"2022-03-04T22:00:00.999936","PERIAPSIS":"354.826","SITE":"AFETR","CLASSIFICATION_TYPE":"U","RA_OF_ASC_NODE":"27.8712","TLE_LINE2":"2 51472  53.2177  27.8712 0001566  40.1112  75.4809 15.71055554  5916","NORAD_CAT_ID":"51472","DECAY_DATE":null,"EPHEMERIS_TYPE":"0"},{"MEAN_ANOMALY":"154.2379","OBJECT_ID":"2022-016A","OBJECT_NAME":"STARLINK-3528","CENTER_NAME":"EARTH","ECCENTRICITY":"0.00011760","PERIOD":"91.530","SITE":"AFETR","CLASSIFICATION_TYPE":"U","PERIAPSIS":"348.835","EPOCH":"2022-03-04T22:00:00.999936","LAUNCH_DATE":"2022-02-21","NORAD_CAT_ID":"51714","TLE_LINE2":"2 51714  53.2186  83.5658 0001176  43.1935 154.2379 15.73247154  2462","RA_OF_ASC_NODE":"83.5658","EPHEMERIS_TYPE":"0","DECAY_DATE":null,"REV_AT_EPOCH":"246","FILE":"3344863","BSTAR":"-0.00008965700000","APOAPSIS":"350.417","MEAN_ELEMENT_THEORY":"SGP4","REF_FRAME":"TEME","ARG_OF_PERICENTER":"43.1935","COUNTRY_CODE":"US","INCLINATION":"53.2186","MEAN_MOTION_DDOT":"0.0000000000000","SEMIMAJOR_AXIS":"6727.761","MEAN_MOTION_DOT":"-0.00013208","ELEMENT_SET_NO":"999","GP_ID":"197908506","MEAN_MOTION":"15.73247154","OBJECT_TYPE":"PAYLOAD","TIME_SYSTEM":"UTC","TLE_LINE1":"1 51714U 22016A   22063.91667824 -.00013208  00000-0 -89657-4 0  9990","RCS_SIZE":null},{"ARG_OF_PERICENTER":"55.4274","COUNTRY_CODE":"US","INCLINATION":"53.2185","MEAN_MOTION_DDOT":"0.0000000000000","SEMIMAJOR_AXIS":"6727.839","REV_AT_EPOCH":"246","FILE":"3344863","BSTAR":"0.00014529000000","REF_FRAME":"TEME","APOAPSIS":"350.574","MEAN_ELEMENT_THEORY":"SGP4","MEAN_MOTION":"15.73219529","OBJECT_TYPE":"PAYLOAD","TLE_LINE1":"1 51715U 22016B   22063.91667824  .00019835  00000-0  14529-3 0  9996","TIME_SYSTEM":"UTC","RCS_SIZE":null,"MEAN_MOTION_DOT":"0.00019835","ELEMENT_SET_NO":"999","GP_ID":"197908102","SITE":"AFETR","CLASSIFICATION_TYPE":"U","PERIAPSIS":"348.835","EPOCH":"2022-03-04T22:00:00.999936","LAUNCH_DATE":"2022-02-21","OBJECT_ID":"2022-016B","MEAN_ANOMALY":"143.9411","OBJECT_NAME":"STARLINK-3533","CENTER_NAME":"EARTH","ECCENTRICITY":"0.00012930","PERIOD":"91.532","EPHEMERIS_TYPE":"0","DECAY_DATE":null,"NORAD_CAT_ID":"51715","TLE_LINE2":"2 51715  53.2185  83.5607 0001293  55.4274 143.9411 15.73219529  2465","RA_OF_ASC_NODE":"83.5607"},{"ARG_OF_PERICENTER":"57.8815","INCLINATION":"53.2169","COUNTRY_CODE":"US","MEAN_MOTION_DDOT":"0.0000000000000","SEMIMAJOR_AXIS":"6727.949","REV_AT_EPOCH":"246","FILE":"3344863","BSTAR":"0.00058008000000","APOAPSIS":"350.655","REF_FRAME":"TEME","MEAN_ELEMENT_THEORY":"SGP4","MEAN_MOTION":"15.73181075","OBJECT_TYPE":"PAYLOAD","TIME_SYSTEM":"UTC","TLE_LINE1":"1 51716U 22016C   22063.91667824  .00081517  00000-0  58008-3 0  9993","RCS_SIZE":null,"MEAN_MOTION_DOT":"0.00081517","ELEMENT_SET_NO":"999","GP_ID":"197908312","SITE":"AFETR","CLASSIFICATION_TYPE":"U","PERIAPSIS":"348.973","EPOCH":"2022-03-04T22:00:00.999936","LAUNCH_DATE":"2022-02-21","OBJECT_ID":"2022-016C","MEAN_ANOMALY":"140.1834","OBJECT_NAME":"STARLINK-3543","CENTER_NAME":"EARTH","ECCENTRICITY":"0.00012500","PERIOD":"91.534","EPHEMERIS_TYPE":"0","DECAY_DATE":null,"NORAD_CAT_ID":"51716","TLE_LINE2":"2 51716  53.2169  83.5632 0001250  57.8815 140.1834 15.73181075  2468","RA_OF_ASC_NODE":"83.5632"},{"DECAY_DATE":null,"EPHEMERIS_TYPE":"0","TLE_LINE2":"2 51717  53.2187  83.5623 0001245  55.6371 143.0827 15.73218892  3076","RA_OF_ASC_NODE":"83.5623","NORAD_CAT_ID":"51717","EPOCH":"2022-03-04T22:00:00.999936","LAUNCH_DATE":"2022-02-21","CLASSIFICATION_TYPE":"U","SITE":"AFETR","PERIAPSIS":"348.869","PERIOD":"91.532","ECCENTRICITY":"0.00012450","CENTER_NAME":"EARTH","MEAN_ANOMALY":"143.0827","OBJECT_ID":"2022-016D","OBJECT_NAME":"STARLINK-3445","RCS_SIZE":null,"MEAN_MOTION":"15.73218892","OBJECT_TYPE":"PAYLOAD","TIME_SYSTEM":"UTC","TLE_LINE1":"1 51717U 22016D   22063.91667824  .00016256  00000-0  11992-3 0  9993","GP_ID":"197882048","MEAN_MOTION_DOT":"0.00016256","ELEMENT_SET_NO":"999","MEAN_MOTION_DDOT":"0.0000000000000","INCLINATION":"53.2187","COUNTRY_CODE":"US","SEMIMAJOR_AXIS":"6727.841","ARG_OF_PERICENTER":"55.6371","FILE":"3344765","REF_FRAME":"TEME","APOAPSIS":"350.544","MEAN_ELEMENT_THEORY":"SGP4","BSTAR":"0.00011992000000","REV_AT_EPOCH":"307"},{"RA_OF_ASC_NODE":"83.5566","TLE_LINE2":"2 51718  53.2169  83.5566 0001232  45.6589 155.5913 15.73169789  2465","NORAD_CAT_ID":"51718","DECAY_DATE":null,"EPHEMERIS_TYPE":"0","PERIOD":"91.535","MEAN_ANOMALY":"155.5913","OBJECT_NAME":"STARLINK-3546","CENTER_NAME":"EARTH","OBJECT_ID":"2022-016E","ECCENTRICITY":"0.00012320","LAUNCH_DATE":"2022-02-21","EPOCH":"2022-03-04T22:00:00.999936","PERIAPSIS":"349.017","SITE":"AFETR","CLASSIFICATION_TYPE":"U","GP_ID":"197908409","ELEMENT_SET_NO":"999","MEAN_MOTION_DOT":"0.00086528","RCS_SIZE":null,"TIME_SYSTEM":"UTC","TLE_LINE1":"1 51718U 22016E   22063.91667824  .00086528  00000-0  61540-3 0  9997","MEAN_MOTION":"15.73169789","OBJECT_TYPE":"PAYLOAD","BSTAR":"0.00061540000000","APOAPSIS":"350.675","REF_FRAME":"TEME","MEAN_ELEMENT_THEORY":"SGP4","FILE":"3344863","REV_AT_EPOCH":"246","SEMIMAJOR_AXIS":"6727.981","INCLINATION":"53.2169","COUNTRY_CODE":"US","MEAN_MOTION_DDOT":"0.0000000000000","ARG_OF_PERICENTER":"45.6589"},{"OBJECT_ID":"2022-016F","MEAN_ANOMALY":"146.2560","OBJECT_NAME":"STARLINK-3540","CENTER_NAME":"EARTH","ECCENTRICITY":"0.00011230","PERIOD":"91.531","SITE":"AFETR","CLASSIFICATION_TYPE":"U","PERIAPSIS":"348.878","EPOCH":"2022-03-04T22:00:00.999936","LAUNCH_DATE":"2022-02-21","NORAD_CAT_ID":"51719","TLE_LINE2":"2 51719  53.2168  83.5590 0001123  53.7393 146.2560 15.73244396  3008","RA_OF_ASC_NODE":"83.5590","EPHEMERIS_TYPE":"0","DECAY_DATE":null,"REV_AT_EPOCH":"300","FILE":"3344766","BSTAR":"-0.00010108000000","MEAN_ELEMENT_THEORY":"SGP4","APOAPSIS":"350.389","REF_FRAME":"TEME","ARG_OF_PERICENTER":"53.7393","INCLINATION":"53.2168","COUNTRY_CODE":"US","MEAN_MOTION_DDOT":"0.0000000000000","SEMIMAJOR_AXIS":"6727.769","MEAN_MOTION_DOT":"-0.00014808","ELEMENT_SET_NO":"999","GP_ID":"197882067","OBJECT_TYPE":"PAYLOAD","MEAN_MOTION":"15.73244396","TIME_SYSTEM":"UTC","TLE_LINE1":"1 51719U 22016F   22063.91667824 -.00014808  00000-0 -10108-3 0  9996","RCS_SIZE":null},{"ECCENTRICITY":"0.00014280","OBJECT_NAME":"STARLINK-3526","MEAN_ANOMALY":"139.4454","OBJECT_ID":"2022-016G","CENTER_NAME":"EARTH","PERIOD":"91.535","PERIAPSIS":"348.893","CLASSIFICATION_TYPE":"U","SITE":"AFETR","LAUNCH_DATE":"2022-02-21","EPOCH":"2022-03-04T22:00:00.999936","NORAD_CAT_ID":"51720","RA_OF_ASC_NODE":"83.5556","TLE_LINE2":"2 51720  53.2170  83.5556 0001428  62.4666 139.4454 15.73167219  2466","EPHEMERIS_TYPE":"0","DECAY_DATE":null,"REV_AT_EPOCH":"246","MEAN_ELEMENT_THEORY":"SGP4","APOAPSIS":"350.814","REF_FRAME":"TEME","BSTAR":"0.00062789000000","FILE":"3344863","ARG_OF_PERICENTER":"62.4666","SEMIMAJOR_AXIS":"6727.989","MEAN_MOTION_DDOT":"0.0000000000000","INCLINATION":"53.2170","COUNTRY_CODE":"US","ELEMENT_SET_NO":"999","MEAN_MOTION_DOT":"0.00088307","GP_ID":"197907990","TLE_LINE1":"1 51720U 22016G   22063.91667824  .00088307  00000-0  62789-3 0  9993","TIME_SYSTEM":"UTC","OBJECT_TYPE":"PAYLOAD","MEAN_MOTION":"15.73167219","RCS_SIZE":null},{"PERIOD":"91.535","ECCENTRICITY":"0.00011220","MEAN_ANOMALY":"156.4408","OBJECT_ID":"2022-016H","OBJECT_NAME":"STARLINK-3524","CENTER_NAME":"EARTH","EPOCH":"2022-03-04T22:00:00.999936","LAUNCH_DATE":"2022-02-21","CLASSIFICATION_TYPE":"U","SITE":"AFETR","PERIAPSIS":"349.104","TLE_LINE2":"2 51721  53.2168  83.5576 0001122  44.2072 156.4408 15.73165547  2466","RA_OF_ASC_NODE":"83.5576","NORAD_CAT_ID":"51721","DECAY_DATE":null,"EPHEMERIS_TYPE":"0","FILE":"3344863","MEAN_ELEMENT_THEORY":"SGP4","APOAPSIS":"350.613","REF_FRAME":"TEME","BSTAR":"0.00059929000000","REV_AT_EPOCH":"246","MEAN_MOTION_DDOT":"0.0000000000000","INCLINATION":"53.2168","COUNTRY_CODE":"US","SEMIMAJOR_AXIS":"6727.993","ARG_OF_PERICENTER":"44.2072","GP_ID":"197907885","MEAN_MOTION_DOT":"0.00084208","ELEMENT_SET_NO":"999","RCS_SIZE":null,"MEAN_MOTION":"15.73165547","OBJECT_TYPE":"PAYLOAD","TLE_LINE1":"1 51721U 22016H   22063.91667824  .00084208  00000-0  59929-3 0  9992","TIME_SYSTEM":"UTC"}];
